303P/NEAT,e,7.0162,347.9489,357.0298,5.039878,0.0871112,0.51027400,337.7069,06/09.0/2025,2000,g 13.5,4.0
# From MPEC 2022-K19
304P/Ory,e,2.6056,58.9379,335.2795,3.149664,0.1763225,0.60084524,310.2421,06/09.0/2025,2000,g 16.5,4.0
# From MPC182890
305P/Skiff,e,11.6706,240.0992,147.4032,4.636208,0.0987324,0.69408768,20.1279,06/09.0/2025,2000,g 18.0,4.0
# From MPC 92278
306P/LINEAR,e,8.3029,341.3518,0.8973,3.124421,0.1784636,0.59257290,350.4259,06/09.0/2025,2000,g 19.0,4.0
# From MPC 92278
307P/LINEAR,e,4.4346,158.1131,222.2540,5.788065,0.0707789,0.67500462,269.9500,06/09.0/2025,2000,g 15.0,4.0
# From MPEC 2022-C56
308P/Lagerkvist-Carsenty,e,4.8521,63.0994,333.7578,6.601335,0.0581107,0.36414828,213.7026,06/09.0/2025,2000,g 13.0,2.0
# From MPC184419
309P/LINEAR,e,17.0199,10.1387,49.9182,4.374635,0.1077188,0.61821662,47.0786,06/09.0/2025,2000,g 15.0,4.0
# From MPC182891
310P/Hill,e,13.1202,8.8834,31.5181,4.180967,0.1152893,0.42207258,68.5816,06/09.0/2025,2000,g 13.5,4.0
# From MPC184419
311P/PANSTARRS,e,4.9713,279.1689,144.2914,2.188694,0.3043874,0.11549170,159.5322,06/09.0/2025,2000,g 17.0,4.0
# From MPEC 2024-NE4
312P/NEAT,e,19.7461,144.6357,207.6981,3.472452,0.1523175,0.42666960,261.8326,06/09.0/2025,2000,g 16.0,4.0
# From MPEC 2024-N80
313P/Gibbs,e,10.9810,105.9254,254.9846,3.163307,0.1751830,0.23446756,329.0396,06/09.0/2025,2000,g 15.0,4.0
# From MPC105243
314P/Montani,e,3.9920,267.6230,213.8653,7.249098,0.0504985,0.41857196,159.5932,06/09.0/2025,2000,g  9.5,4.0
# From MPEC 2023-J29
315P/LONEOS,e,17.7349,68.6386,65.9157,4.936170,0.0898709,0.52208561,279.9685,06/09.0/2025,2000,g 11.0,4.0
# From MPC182891
316P/LONEOS-Christensen,e,9.8738,245.8860,187.0217,4.407906,0.1065015,0.15659978,26.3540,06/09.0/2025,2000,g 13.5,4.0
# From MPEC 2020-C98
317P/WISE,e,11.9748,275.4729,334.8877,2.959532,0.1935840,0.57201698,332.1501,06/09.0/2025,2000,g 17.5,4.0
# From MPC102103
318P/McNaught-Hartley,e,17.8644,35.6060,313.3022,7.514790,0.0478441,0.67327067,168.2899,06/09.0/2025,2000,g  8.5,6.0
# From MPC184420
319P/Catalina-McNaught,e,15.0967,111.3651,203.5951,3.562546,0.1465762,0.66641828,170.9695,06/09.0/2025,2000,g 15.0,4.0
# From MPC 96281
320P/McNaught,e,4.9028,295.9406,0.7569,3.095944,0.1809316,0.68489906,290.5476,06/09.0/2025,2000,g 20.5,4.0
# From MPC105243
321P/SOHO,e,20.0549,165.0264,172.7402,2.422050,0.2614745,0.98100514,0.0000,10/26.5027/2023,2000,g 20.0,4.0
# From MPC102103
322P/SOHO,e,11.4482,351.3445,57.0772,2.508660,0.2480512,0.97992940,0.0000,08/21.1631/2023,2000,g 19.0,4.0
# From MPC182891
323P/SOHO,e,5.2114,323.9470,353.3262,2.440195,0.2585635,0.98344925,0.0000,03/14.2316/2025,2000,g 20.0,4.0
# From MPEC 2024-F21
323P-B/SOHO,e,5.4607,323.4633,353.9663,2.890066,0.2006053,0.98612568,0.0000,12/16.2394/2025,2000,g 26.0,4.0
# From MPEC 2024-F21
323P-C/SOHO,e,5.3378,324.1879,353.2124,2.612121,0.2334609,0.98476745,0.0000,04/07.1009/2025,2000,g 27.0,4.0
# From MPEC 2021-W31
324P/LaSagra,e,21.3992,270.5691,57.4182,3.097268,0.1808156,0.15280062,270.9007,06/09.0/2025,2000,g 13.0,4.0
# From MPEC 2024-LE0
325P/Yang-Gao,e,16.8468,256.8576,344.9147,3.549472,0.1473867,0.58718387,172.8726,06/09.0/2025,2000,g 14.0,4.0
# From MPEC 2024-LE0
326P/Hill,e,2.4737,99.7608,278.0707,4.063771,0.1203124,0.32049947,63.6020,06/09.0/2025,2000,g 13.5,4.0
# From MPEC 2024-M41
327P/VanNess,e,36.2309,173.9986,185.0402,3.563035,0.1465460,0.56251854,148.1777,06/09.0/2025,2000,g 16.0,4.0
# From MPEC 2024-YC7
328P/LONEOS-Tucker,e,17.6793,341.5483,30.6757,4.190359,0.1149019,0.55314894,36.3165,06/09.0/2025,2000,g 14.5,4.0
# From MPC101101
329P/LINEAR-Catalina,e,21.7189,87.6876,343.6019,5.182071,0.0835505,0.67888092,289.9341,06/09.0/2025,2000,g 13.5,4.0
# From MPEC 2023-J29
330P/Catalina,e,15.7400,293.0837,188.8368,6.615145,0.0579289,0.55057367,185.6057,06/09.0/2025,2000,g 12.0,4.0
# From MPEC 2024-Q20
331P/Gibbs,e,9.7407,216.7424,185.5977,3.002965,0.1893994,0.04144176,322.3870,06/09.0/2025,2000,g 12.0,4.0
# From MPEC 2016-K18
332P/Ikeya-Murakami,e,9.3858,3.7544,152.2975,3.086089,0.1817990,0.48984356,252.7896,06/09.0/2025,2000,g 18.0,4.0
# From MPEC 2016-K18
332P-A/Ikeya-Murakami,e,9.3856,152.3146,3.7383,3.086071,0.1818006,0.48985106,252.7884,06/09.0/2025,2000,g  9.0,4.0
# From MPEC 2016-EI8
332P-B/Ikeya-Murakami,e,9.3805,3.8028,152.3711,3.082329,0.1821317,0.48970701,359.9699,03/17.0/2016,2000,g 19.0,4.0
# From MPEC 2016-K18
332P-C/Ikeya-Murakami,e,9.3847,152.3059,3.7387,3.086037,0.1818036,0.48985660,252.8067,06/09.0/2025,2000,g 16.5,4.0
# From MPEC 2016-ED0
332P-D/Ikeya-Murakami,e,9.3761,3.7923,152.4393,3.081138,0.1822373,0.48977814,359.9486,03/17.0/2016,2000,g 19.0,4.0
# From MPEC 2016-ED0
332P-E/Ikeya-Murakami,e,9.3774,3.8228,152.2825,3.079877,0.1823493,0.48922008,359.9889,03/17.0/2016,2000,g 21.0,4.0
# From MPEC 2016-ED0
332P-F/Ikeya-Murakami,e,9.5293,3.4757,152.8203,3.163214,0.1751908,0.49918860,359.8501,03/17.0/2016,2000,g 21.0,4.0
# From MPEC 2016-ED0
332P-G/Ikeya-Murakami,e,9.2523,3.6955,154.4000,3.050519,0.1849880,0.49200362,359.9006,03/19.0/2016,2000,g 19.0,4.0
# From MPC100285
332P-H/Ikeya-Murakami,e,9.3852,152.3065,3.7384,3.086217,0.1817876,0.48989254,252.7191,06/09.0/2025,2000,g 19.0,4.0
# From MPEC 2016-ED0
332P-I/Ikeya-Murakami,e,9.3791,3.8048,152.3297,3.081767,0.1821815,0.48955490,359.9360,03/17.0/2016,2000,g 20.5,2.0
# From MPEC 2016-EI8
332P-J/Ikeya-Murakami,e,9.4296,3.6729,152.7712,3.115165,0.1792596,0.49429435,359.8613,03/17.0/2016,2000,g 20.5,2.0
# From MPC182891
333P/LINEAR,e,132.0224,115.7067,26.0209,4.220445,0.1136754,0.73628392,21.7918,06/09.0/2025,2000,g 15.0,4.0
# From MPEC 2023-J29
334P/NEAT,e,20.3645,90.3612,90.0703,6.824470,0.0552842,0.35196703,161.7944,06/09.0/2025,2000,g 10.5,4.0
# From MPEC 2023-M14
335P/Gibbs,e,7.2978,330.7916,162.3215,3.577239,0.1456741,0.54686773,150.2592,06/09.0/2025,2000,g 16.8,4.0
# From MPC105244
336P/McNaught,e,17.8717,298.1713,308.6918,5.035114,0.0872349,0.44617233,266.6205,06/09.0/2025,2000,g 13.5,4.0
# From MPEC 2024-A43
337P/WISE,e,17.0026,102.1012,166.1725,3.342046,0.1613190,0.48298949,174.0977,06/09.0/2025,2000,g 17.0,4.0
# From MPC182891
338P/McNaught,e,25.3761,9.7452,4.6328,3.895668,0.1281832,0.41278776,39.6961,06/09.0/2025,2000,g 12.0,4.0
# From MPC101101
339P/Gibbs,e,5.7346,27.4579,172.6745,3.698525,0.1385675,0.63579850,89.7945,06/09.0/2025,2000,g 17.0,4.0
# From MPC133426
340P/Boattini,e,2.0790,291.6595,36.0649,4.247005,0.1126108,0.27997574,350.8494,06/09.0/2025,2000,g 14.3,4.0
# From MPEC 2023-J29
341P/Gibbs,e,3.7965,29.9526,312.3623,4.284849,0.1111222,0.41504912,5.2551,06/09.0/2025,2000,g 12.5,4.0
# From MPC101101
342P/SOHO,e,11.6900,73.3083,27.6515,3.040788,0.1858767,0.98298117,0.0000,02/07.6944/2027,2000,g  9.0,4.0
# From MPEC 2024-PC5
343P/NEAT-LONEOS,e,5.5976,257.0545,137.6081,5.457972,0.0772960,0.58482114,235.5819,06/09.0/2025,2000,g 14.0,4.0
# From MPEC 2023-J29
344P/Read,e,3.4996,273.1014,140.6247,4.854979,0.0921347,0.42374042,288.5185,06/09.0/2025,2000,g 13.0,4.0
# From MPEC 2024-TP3
345P/LINEAR,e,2.7280,154.5067,196.7617,4.032328,0.1217224,0.22134747,34.3237,06/09.0/2025,2000,g 12.0,4.0
# From MPEC 2022-K19
346P/Catalina,e,22.2194,102.4579,336.0768,4.467826,0.1043662,0.50391012,316.3485,06/09.0/2025,2000,g 14.0,4.0
# From MPEC 2024-RQ6
347P/PANSTARRS,e,11.7660,260.9914,98.0928,3.600005,0.1442944,0.38695903,99.6715,06/09.0/2025,2000,g 15.0,4.0
# From MPEC 2022-ED3
348P/PANSTARRS,e,17.7427,312.9126,135.7762,3.151609,0.1761593,0.30749839,213.4109,06/09.0/2025,2000,g 14.0,4.0
# From MPEC 2024-LE0
349P/Lemmon,e,5.4892,331.7387,255.7499,3.578020,0.1456263,0.29859398,55.0540,06/09.0/2025,2000,g 14.0,4.0
# From MPC184420
350P/McNaught,e,7.3655,65.2953,140.0569,4.080845,0.1195581,0.09470993,326.3546,06/09.0/2025,2000,g 14.0,4.0
# From MPC184420
351P/Wiegert-PANSTARRS,e,12.7789,283.3862,352.5576,4.440672,0.1053249,0.29473163,7.8826,06/09.0/2025,2000,g 12.5,4.0
# From MPEC 2023-J29
352P/Skiff,e,21.0036,28.0510,309.3707,6.655584,0.0574017,0.61596600,167.1792,06/09.0/2025,2000,g 13.2,4.0
# From MPEC 2020-AA5
353P/McNaught,e,28.4192,121.5095,230.4854,4.170883,0.1157076,0.46971029,315.1668,06/09.0/2025,2000,g 14.5,4.0
# From MPEC 2024-EF7
354P/LINEAR,e,5.2507,320.0586,132.9366,2.290358,0.2843473,0.12444881,171.6737,06/09.0/2025,2000,g 15.5,4.0
# From MPEC 2023-CD7
355P/LINEAR-NEAT,e,11.0460,51.4241,336.2589,3.467112,0.1526695,0.50795996,66.2212,06/09.0/2025,2000,g 15.5,2.0
# From MPEC 2022-F14
356P/WISE,e,9.6419,160.7913,226.2161,4.152329,0.1164840,0.35586653,317.0961,06/09.0/2025,2000,g 14.0,4.0
# From MPC114609
357P/Hill,e,6.3126,44.5678,1.5058,4.454991,0.1048175,0.43601108,268.5316,06/09.0/2025,2000,g 15.5,4.0
# From MPEC 2024-EF7
358P/PANSTARRS,e,11.0668,85.6673,299.3315,3.145685,0.1766572,0.23947900,102.0171,06/09.0/2025,2000,g 18.0,4.0
# From MPC110086
359P/LONEOS,e,10.2618,149.7454,200.2812,4.642544,0.0985304,0.32311412,280.5424,06/09.0/2025,2000,g 13.5,4.0
# From MPEC 2025-A40
360P/WISE,e,24.1053,2.1560,354.3261,3.699038,0.1385386,0.49939704,34.3812,06/09.0/2025,2000,g 19.5,6.0
# From MPEC 2023-CD7
361P/Spacewatch,e,13.8975,203.2286,219.1330,4.932973,0.0899582,0.43952592,227.4350,06/09.0/2025,2000,g 12.0,4.0
# From MPC184420
363P/Lemmon,e,5.3938,146.7583,340.7631,3.574678,0.1458306,0.51856150,30.3002,06/09.0/2025,2000,g 17.5,4.0
# From MPEC 2024-M41
364P/PANSTARRS,e,11.8866,45.8275,212.8236,2.901181,0.1994536,0.71746504,151.2411,06/09.0/2025,2000,g 17.0,2.0
# From MPC111775
365P/PANSTARRS,e,9.8499,86.6558,67.4151,3.156280,0.1757684,0.58165449,106.9529,06/09.0/2025,2000,g 17.0,4.0
# From MPC114610
366P/Spacewatch,e,8.8567,70.7230,152.9939,3.500385,0.1504978,0.34865052,19.4311,06/09.0/2025,2000,g 15.0,4.0
# From MPC112395
367P/Catalina,e,8.4591,58.6609,172.6816,3.511718,0.1497699,0.28014167,22.2375,06/09.0/2025,2000,g 17.5,2.0
# From MPC114610
368P/NEAT,e,15.4825,257.8564,118.9858,5.535170,0.0756846,0.62563239,186.0944,06/09.0/2025,2000,g 14.0,4.0
# From MPC114610
369P/Hill,e,10.3194,47.2841,13.2413,4.378606,0.1075723,0.55589867,260.7165,06/09.0/2025,2000,g 15.0,4.0
